prediction:
  azimuth_start: 10
  azimuth_stop: 203
  azimuth_tca: null
  max_elevation: 62
  tca: null
  time_start: 2020-04-29 08:57:00
  time_stop: 2020-04-29 09:11:00
satellite:
  name: Delfi-C3
  noradid: '32789'
  tle:
    line1: 1 32789U 08021G   20119.15981739 +.00001048 +00000-0 +72691-4 0  9998
    line2: 2 32789 097.4232 163.7096 0013600 124.5275 235.7239 15.07627112654239
station:
  name: DopTrack
  position:
    altitude: 95
    latitude: 51.9989
    longitude: 4.3733585
tracking:
  epoch: 2020-04-29 08:57:03.489148
  fca: 145867741.82914793
  fca_error: 0.13190718881378846
  tca: 2020-04-29 09:04:05.378515
  tca_error: 0.008626931515937544
